<!DOCTYPE html PUBLIC "-//W3C//DTD XHTML 1.0 Strict//EN" "http://www.w3.org/TR/xhtml1/DTD/xhtml1-strict.dtd">
<html xmlns="http://www.w3.org/1999/xhtml">
<head>
<meta http-equiv="Content-Type" content="text/html; charset=iso-8859-1"/>
<title>404 - File Not Found.</title>
<style type="text/css">
<!--
body{margin:0;font-size:.7em;font-family:Verdana, Arial, Helvetica, sans-serif;background:#EEEEEE;}
fieldset{padding:0 15px 10px 15px;}
h1{font-size:2.4em;margin:0;color:#FFF;}
h2{font-size:1.7em;margin:0;color:#CC0000;}
h3{font-size:1.2em;margin:10px 0 0 0;color:#000000;}
#header{width:96%;margin:0 0 0 0;padding:6px 2% 6px 2%;font-family:"trebuchet MS", Verdana, sans-serif;color:#FFF;
background-color:#555555;}
#content{margin:0 0 0 2%;position:relative;}
.content-container{background:#FFF;width:96%;margin-top:8px;padding:10px;position:relative;}
-->
</style>
</head>
<body>
<div id="header"><h1>Server Error</h1></div>
<div id="content">
 <div class="content-container"><fieldset>
  <h2>404 - File Not Found.</h2>
  <h3>File not found for celestrak.org/NORAD/elements/active.txt.</h3>
  <h3>Please contact <a href="mailto:ts.kelso@celestrak.org">ts.kelso@celestrak.org</a> if you have other questions.</h3>
 </fieldset></div>
</div>
</body>
</html>
BEIDOU-3 G3 (PRN 143)   
1 45807U 20040A   24045.04632703 -.00000359  00000+0  00000+0 0  9996
2 45807   0.6116  21.4255 0009325 293.8292 315.5276  1.00270235 13512
GALAXY 30 (WAAS/PRN 135)
1 46114U 20056C   24044.64125495  .00000032  00000+0  00000+0 0  9992
2 46114   0.0169 104.9880 0001960 220.3310 283.6645  1.00270255 12729
HST                     
1 20580U 90037B   24044.83067599  .00008972  00000+0  44578-3 0  9991
2 20580  28.4690  97.1185 0003052 121.7477 238.3413 15.15924115658137
POLAR                   
1 23802U 96013A   24044.90196735  .00000291  00000+0  00000+0 0  9998
2 23802  79.0367 235.8259 5821160 238.0144  52.4342  1.29846951133741
SWAS                    
1 25560U 98071A   24044.88980782  .00004847  00000+0  40693-3 0  9994
2 25560  69.8971 254.0264 0004746 146.4858 213.6602 14.98977629368751
CXO                     
1 25867U 99040B   24046.22721651  .00000677  00000+0  00000+0 0  9990
2 25867  38.7644 166.4387 8987243 287.0503   0.4927  0.37809626 25250
XMM-NEWTON              
1 25989U 99066A   24045.01696980  .00000111  00000+0  00000+0 0  9998
2 25989  68.2547 294.7154 5273444  78.9685  41.5059  0.50129898 33081
TERRA                   
1 25994U 99068A   24045.22115244  .00001265  00000+0  27552-3 0  9994
2 25994  98.0647 112.2863 0002677  56.1999  11.1262 14.59590794285088
CLUSTER II-FM7 (SAMBA)  
1 26410U 00041A   24044.95253526  .00000453  00000+0  00000+0 0  9999
2 26410 138.1223 355.8549 7167824 210.6206 359.1125  0.44204654 16491
CLUSTER II-FM6 (SALSA)  
1 26411U 00041B   24044.93471108  .00002768  00000+0  00000+0 0  9997
2 26411 145.7853  13.5854 8772761 228.0081 359.1365  0.44236172 27565
CLUSTER II-FM5 (RUMBA)  
1 26463U 00045A   24047.20956643  .00002399  00000+0  00000+0 0  9993
2 26463 148.2292  11.1680 8290719 226.2419 359.5433  0.44224538 28846
CLUSTER II-FM8 (TANGO)  
1 26464U 00045B   24042.69173289  .00000379  00000+0  00000+0 0  9995
2 26464 138.0809 355.7823 7154384 210.5447 359.3022  0.44218875 16494
ODIN                    
1 26702U 01007A   24044.77481031  .00015314  00000+0  73229-3 0  9999
2 26702  97.4924  60.7534 0008296   9.9499 350.1898 15.19059170257998
TIMED                   
1 26998U 01055B   24044.72241596  .00003938  00000+0  40422-3 0  9992
2 26998  74.0727 150.1273 0002222 259.0006 101.0926 14.90765698203270
INTEGRAL                
1 27540U 02048A   24044.25031116 -.00000221  00000+0  00000+0 0  9999
2 27540  87.8369  26.6460 8687057 285.4970  46.9736  0.37585536 23418
CORIOLIS                
1 27640U 03001A   24044.95298449  .00000363  00000+0  19306-3 0  9990
2 27640  98.7159  54.1515 0014685 149.2099 210.9941 14.19398104 93018
SORCE                   
1 27651U 03004A   24044.73857883  .00006250  00000+0  58832-3 0  9992
2 27651  39.9940  63.2888 0018565  75.1049 285.1796 14.93929340143621
MOST                    
1 27843U 03031D   24044.91287378  .00000290  00000+0  15420-3 0  9995
2 27843  98.7086  53.6648 0009674 192.5358 167.5580 14.20901550 69379
SCISAT 1                
1 27858U 03036A   24045.21900199  .00001872  00000+0  25902-3 0  9996
2 27858  73.9312  65.0701 0008879 315.0486  44.9969 14.78818742105091
SWIFT                   
1 28485U 04047A   24044.51301811  .00016341  00000+0  80712-3 0  9991
2 28485  20.5577 351.3529 0008733 109.9520 250.1857 15.15632507 55216
CLOUDSAT                
1 29107U 06016A   24045.20463609  .00002656  00000+0  42112-3 0  9998
2 29107  98.4089  24.8711 0005919  34.7978 325.3614 14.73073106947976
CALIPSO                 
1 29108U 06016B   24044.95588525  .00003757  00000+0  70774-3 0  9993
2 29108  98.4070  23.8865 0001577  85.3259 274.8123 14.65164456947755
HINODE (SOLAR-B)        
1 29479U 06041A   24044.93945313  .00001736  00000+0  32445-3 0  9990
2 29479  98.0972  61.9966 0019280 112.1118 248.2135 14.66048596929576
SJ-6C                   
1 29505U 06046A   24045.13818426  .00009272  00000+0  71946-3 0  9994
2 29505  97.7401  72.6052 0005244 177.0974 183.0281 15.01573750943534
SJ-6D                   
1 29506U 06046B   24045.11968841  .00003753  00000+0  33468-3 0  9995
2 29506  97.7520  71.1841 0002263  29.6040 330.5309 14.96583056942779
AGILE                   
1 31135U 07013A   24039.00000000  .02708747 -37185-4  64323-3 0  9997
2 31135   2.4637  60.5051 0002597  58.1662 329.6832 16.28281628937887
FGRST (GLAST)           
1 33053U 08029A   24044.91868099  .00006528  00000+0  31742-3 0  9997
2 33053  25.5840 342.0161 0010693  25.6041 334.5024 15.15678981865690
WISE                    
1 36119U 09071A   24044.67514058  .00036095  00000+0  57596-3 0  9994
2 36119  97.1671  80.6078 0001381 142.6642 217.4708 15.53129874788850
SDO                     
1 36395U 10005A   24044.63273601 -.00000080  00000+0  00000+0 0  9991
2 36395  32.8661  99.5398 0002452 206.9348 322.2655  1.00276286 51498
CRYOSAT 2               
1 36508U 10013A   24045.16263706  .00000544  00000+0  13427-3 0  9995
2 36508  92.0262  70.9644 0003434  28.1800 331.9592 14.51909402734201
X-SAT                   
1 37389U 11015C   24045.16809428  .00000269  00000+0  13322-3 0  9991
2 37389  98.2960  55.9730 0013602 336.0205  24.0340 14.24627082666575
GCOM-W1 (SHIZUKU)       
1 38337U 12025A   24044.85410753  .00001787  00000+0  40601-3 0  9997
2 38337  98.2273 346.7500 0001025  62.6111   2.9223 14.57192530624622
NUSTAR                  
1 38358U 12031A   24044.91667824  .00011742  00000+0  98735-3 0  9990
2 38358   6.0257 256.2159 0009661 126.7788 149.6331 14.94552121  1305
NEOSSAT                 
1 39089U 13009D   24044.80124838  .00000609  00000+0  22850-3 0  9994
2 39089  98.4039 235.4266 0010097 273.6699  86.3332 14.35057629574161
BRITE-AUSTRIA           
1 39091U 13009F   24044.78605582  .00000650  00000+0  23985-3 0  9990
2 39091  98.3851 235.7510 0009253 271.4856  88.5270 14.35683272574415
IRIS                    
1 39197U 13033A   24044.84211571  .00003852  00000+0  49652-3 0  9998
2 39197  97.9650 236.1574 0025478 223.2240 136.6973 14.81405139573675
HISAKI (SPRINT-A)       
1 39253U 13049A   24044.90337888  .00000162  00000+0  12985-3 0  9995
2 39253  29.7189 242.7009 0137253 291.8124  66.7897 13.55371518515432
CASSIOPE                
1 39265U 13055A   24044.89364707  .00034210  00000+0  76450-3 0  9991
2 39265  80.9606 333.5167 0522326 291.6868  62.9495 14.63525350540170
STSAT-3                 
1 39422U 13066G   24045.21234439  .00005198  00000+0  49294-3 0  9992
2 39422  97.5094  29.9832 0022717  57.5511 302.7902 14.93774072556308
SWARM B                 
1 39451U 13067A   24044.91379541  .00005403  00000+0  25647-3 0  9990
2 39451  87.7454 239.5957 0002723  90.3143 269.8413 15.19052886553127
SWARM A                 
1 39452U 13067B   24045.11590960  .00011743  00000+0  39941-3 0  9990
2 39452  87.3483   7.6344 0003069 101.6740 258.4855 15.30314871574825
SWARM C                 
1 39453U 13067C   24045.11580414  .00011594  00000+0  39435-3 0  9996
2 39453  87.3483   6.2310 0003066 101.7482 258.4112 15.30312208574788
BRITE-CA1 (TORONTO)     
1 40020U 14033L   24044.92827111  .00003338  00000+0  54831-3 0  9992
2 40020  97.8552 186.6294 0084894 128.3490 232.5385 14.68883338516732
OCO 2                   
1 40059U 14035A   24044.90639631  .00001589  00000+0  36290-3 0  9997
2 40059  98.2278 347.5395 0002050  89.5507 270.5926 14.57084122511645
BRITE-PL2 (HEWELIUSZ)   
1 40119U 14049B   24045.18365105  .00004293  00000+0  47290-3 0  9999
2 40119  97.8788 145.5540 0017209  55.0461 305.2369 14.87968029514224
RESURS P2               
1 40360U 14087A   24045.16710651  .00029873  00000+0  49291-3 0  9991
2 40360  97.1585 131.6111 0007960  46.7383 313.4533 15.52197231511787
MMS 1                   
1 40482U 15011A   24045.25001157 -.00002336  00000+0  00000+0 0  9995
2 40482  40.4356  22.3475 9147317 136.9940  64.0730  0.28382268 15026
MMS 2                   
1 40483U 15011B   24045.25001157 -.00002336  00000+0  00000+0 0  9996
2 40483  40.4394  22.3523 9146802 136.9855  64.0857  0.28382250 15005
MMS 3                   
1 40484U 15011C   24045.25001157 -.00002336  00000+0  00000+0 0  9997
2 40484  40.4338  22.3512 9146206 136.9902  64.0765  0.28382275 15008
MMS 4                   
1 40485U 15011D   24045.25001157 -.00002336  00000+0  00000+0 0  9998
2 40485  40.4330  22.3477 9146822 136.9872  64.0960  0.28382303 15000
ASTROSAT                
1 40930U 15052A   24044.95493735  .00003699  00000+0  40855-3 0  9999
2 40930   5.9958 167.8534 0007665 110.8044 249.2905 14.78428614453042
